{"type": "FeatureCollection", "features": [ {"type": "Feature", "properties": {"norad_id": 30814, "name": "FENGYUN 1C DEB", "group": "fengyun-1c-debris", "lat": 78.42731697591778, "lon": -169.3645058532263, "alt_km": 702.984241030711, "timestamp": "2025-12-09T04:51:47.771987+00:00", "meta": {"OBJECT_NAME": "FENGYUN 1C DEB", "OBJECT_ID": "1999-025AUY", "EPOCH": "2025-12-08T10:54:02.611296", "MEAN_MOTION": 14.60247459, "ECCENTRICITY": 0.00304274, "INCLINATION": 99.0829, "RA_OF_ASC_NODE": 318.4434, "ARG_OF_PERICENTER": 246.5831, "MEAN_ANOMALY": 238.5636, "EPHEMERIS_TYPE": 0, "CLASSIFICATION_TYPE": "U", "NORAD_CAT_ID": 30814, "ELEMENT_SET_NO": 999, "REV_AT_EPOCH": 97679, "BSTAR": 0.0035655392, "MEAN_MOTION_DOT": 0.000173, "MEAN_MOTION_DDOT": 0}, "tle": {"line1": "1 30814U 99025AUY 25342.45419689  .00017300  00000+0  35655-2 0  9999", "line2": "2 30814  99.0829 318.4434 0030427 246.5831 238.5636 14.60247459976790"}}, "geometry": {"type": "Point", "coordinates": [-169.3645058532263, 78.42731697591778]}}, {"type": "Feature", "properties": {"norad_id": 30815, "name": "FENGYUN 1C DEB", "group": "fengyun-1c-debris", "lat": -44.58114266586147, "lon": 147.89165360859545, "alt_km": 656.1342754872521, "timestamp": "2025-12-09T04:51:47.771997+00:00", "meta": {"OBJECT_NAME": "FENGYUN 1C DEB", "OBJECT_ID": "1999-025AUZ", "EPOCH": "2025-12-08T09:45:16.205184", "MEAN_MOTION": 14.73211211, "ECCENTRICITY": 0.00023576, "INCLINATION": 99.3013, "RA_OF_ASC_NODE": 137.6859, "ARG_OF_PERICENTER": 274.6378, "MEAN_ANOMALY": 139.7918, "EPHEMERIS_TYPE": 0, "CLASSIFICATION_TYPE": "U", "NORAD_CAT_ID": 30815, "ELEMENT_SET_NO": 999, "REV_AT_EPOCH": 97716, "BSTAR": 0.0047427966, "MEAN_MOTION_DOT": 0.00030686, "MEAN_MOTION_DDOT": 0}, "tle": {"line1": "1 30815U 99025AUZ 25342.40643756  .00030686  00000+0  47428-2 0  9992", "line2": "2 30815  99.3013 137.6859 0002357 274.6378 139.7918 14.73211211977168"}}, "geometry": {"type": "Point", "coordinates": [147.89165360859545, -44.58114266586147]}}, {"type": "Feature", "properties": {"norad_id": 30816, "name": "FENGYUN 1C DEB", "group": "fengyun-1c-debris", "lat": -78.6025689385958, "lon": 104.79965929131805, "alt_km": 871.8624670600402, "timestamp": "2025-12-09T04:51:47.772007+00:00", "meta": {"OBJECT_NAME": "FENGYUN 1C DEB", "OBJECT_ID": "1999-025AVA", "EPOCH": "2025-12-08T17:58:06.345120", "MEAN_MOTION": 14.17970648, "ECCENTRICITY": 0.0052715, "INCLINATION": 98.9146, "RA_OF_ASC_NODE": 53.2116, "ARG_OF_PERICENTER": 66.8864, "MEAN_ANOMALY": 54.577, "EPHEMERIS_TYPE": 0, "CLASSIFICATION_TYPE": "U", "NORAD_CAT_ID": 30816, "ELEMENT_SET_NO": 999, "REV_AT_EPOCH": 96337, "BSTAR": 0.0024995, "MEAN_MOTION_DOT": 5.145e-05, "MEAN_MOTION_DDOT": 0}, "tle": {"line1": "1 30816U 99025AVA 25342.74868455  .00005145  00000+0  24995-2 0  9991", "line2": "2 30816  98.9146  53.2116 0052715  66.8864  54.5770 14.17970648963376"}}, "geometry": {"type": "Point", "coordinates": [104.79965929131805, -78.6025689385958]}}, {"type": "Feature", "properties": {"norad_id": 30817, "name": "FENGYUN 1C DEB", "group": "fengyun-1c-debris", "lat": -40.201735760930305, "lon": 146.04042702158202, "alt_km": 863.2021022118324, "timestamp": "2025-12-09T04:51:47.772018+00:00", "meta": {"OBJECT_NAME": "FENGYUN 1C DEB", "OBJECT_ID": "1999-025AVB", "EPOCH": "2025-12-08T19:14:10.817376", "MEAN_MOTION": 14.0071685, "ECCENTRICITY": 0.0057338, "INCLINATION": 98.7858, "RA_OF_ASC_NODE": 333.1647, "ARG_OF_PERICENTER": 255.9767, "MEAN_ANOMALY": 103.502, "EPHEMERIS_TYPE": 0, "CLASSIFICATION_TYPE": "U", "NORAD_CAT_ID": 30817, "ELEMENT_SET_NO": 999, "REV_AT_EPOCH": 95854, "BSTAR": 0.00050694, "MEAN_MOTION_DOT": 7.24e-06, "MEAN_MOTION_DDOT": 0}, "tle": {"line1": "1 30817U 99025AVB 25342.80151409  .00000724  00000+0  50694-3 0  9997", "line2": "2 30817  98.7858 333.1647 0057338 255.9767 103.5020 14.00716850958544"}}, "geometry": {"type": "Point", "coordinates": [146.04042702158202, -40.201735760930305]}}, {"type": "Feature", "properties": {"norad_id": 30820, "name": "FENGYUN 1C DEB", "group": "fengyun-1c-debris", "lat": -2.789184542116904, "lon": -100.86261354718425, "alt_km": 787.759310150188, "timestamp": "2025-12-09T04:51:47.772027+00:00", "meta": {"OBJECT_NAME": "FENGYUN 1C DEB", "OBJECT_ID": "1999-025AVE", "EPOCH": "2025-12-08T12:53:49.079040", "MEAN_MOTION": 14.21345836, "ECCENTRICITY": 0.00520408, "INCLINATION": 98.676, "RA_OF_ASC_NODE": 78.91, "ARG_OF_PERICENTER": 199.103, "MEAN_ANOMALY": 181.6146, "EPHEMERIS_TYPE": 0, "CLASSIFICATION_TYPE": "U", "NORAD_CAT_ID": 30820, "ELEMENT_SET_NO": 999, "REV_AT_EPOCH": 96364, "BSTAR": 0.0030032293, "MEAN_MOTION_DOT": 6.605e-05, "MEAN_MOTION_DDOT": 0}, "tle": {"line1": "1 30820U 99025AVE 25342.53737360  .00006605  00000+0  30032-2 0  9994", "line2": "2 30820  98.6760  78.9100 0052040 199.1030 181.6146 14.21345836963642"}}, "geometry": {"type": "Point", "coordinates": [-100.86261354718425, -2.789184542116904]}}, {"type": "Feature", "properties": {"norad_id": 30821, "name": "FENGYUN 1C DEB", "group": "fengyun-1c-debris", "lat": -52.7235701149753, "lon": -66.66626461843661, "alt_km": 675.2617843056514, "timestamp": "2025-12-09T04:51:47.772037+00:00", "meta": {"OBJECT_NAME": "FENGYUN 1C DEB", "OBJECT_ID": "1999-025AVF", "EPOCH": "2025-12-01T08:43:29.259840", "MEAN_MOTION": 14.49523426, "ECCENTRICITY": 0.00862987, "INCLINATION": 99.1021, "RA_OF_ASC_NODE": 117.0363, "ARG_OF_PERICENTER": 240.0336, "MEAN_ANOMALY": 149.0962, "EPHEMERIS_TYPE": 0, "CLASSIFICATION_TYPE": "U", "NORAD_CAT_ID": 30821, "ELEMENT_SET_NO": 999, "REV_AT_EPOCH": 98624, "BSTAR": 0.0010654422, "MEAN_MOTION_DOT": 4.23e-05, "MEAN_MOTION_DDOT": 0}, "tle": {"line1": "1 30821U 99025AVF 25335.36353310  .00004230  00000+0  10654-2 0  9997", "line2": "2 30821  99.1021 117.0363 0086298 240.0336 149.0962 14.49523426986240"}}, "geometry": {"type": "Point", "coordinates": [-66.66626461843661, -52.7235701149753]}}, {"type": "Feature", "properties": {"norad_id": 30822, "name": "FENGYUN 1C DEB", "group": "fengyun-1c-debris", "lat": -79.71299987620743, "lon": 69.26416006791645, "alt_km": 812.3967680305323, "timestamp": "2025-12-09T04:51:47.772048+00:00", "meta": {"OBJECT_NAME": "FENGYUN 1C DEB", "OBJECT_ID": "1999-025AVG", "EPOCH": "2025-12-08T08:53:39.820992", "MEAN_MOTION": 14.11333614, "ECCENTRICITY": 0.00731354, "INCLINATION": 98.7356, "RA_OF_ASC_NODE": 10.5516, "ARG_OF_PERICENTER": 297.913, "MEAN_ANOMALY": 72.7772, "EPHEMERIS_TYPE": 0, "CLASSIFICATION_TYPE": "U", "NORAD_CAT_ID": 30822, "ELEMENT_SET_NO": 999, "REV_AT_EPOCH": 96640, "BSTAR": 0.00062061691, "MEAN_MOTION_DOT": 1.107e-05, "MEAN_MOTION_DDOT": 0}, "tle": {"line1": "1 30822U 99025AVG 25342.37059978  .00001107  00000+0  62062-3 0  9991", "line2": "2 30822  98.7356  10.5516 0073135 297.9130  72.7772 14.11333614966407"}}, "geometry": {"type": "Point", "coordinates": [69.26416006791645, -79.71299987620743]}}, {"type": "Feature", "properties": {"norad_id": 30823, "name": "FENGYUN 1C DEB", "group": "fengyun-1c-debris", "lat": 55.106016375972324, "lon": -42.8795754727621, "alt_km": 794.5527221515031, "timestamp": "2025-12-09T04:51:47.772060+00:00", "meta": {"OBJECT_NAME": "FENGYUN 1C DEB", "OBJECT_ID": "1999-025AVH", "EPOCH": "2025-12-08T07:52:55.325568", "MEAN_MOTION": 14.02546876, "ECCENTRICITY": 0.01340422, "INCLINATION": 98.762, "RA_OF_ASC_NODE": 123.5041, "ARG_OF_PERICENTER": 96.8927, "MEAN_ANOMALY": 294.5753, "EPHEMERIS_TYPE": 0, "CLASSIFICATION_TYPE": "U", "NORAD_CAT_ID": 30823, "ELEMENT_SET_NO": 999, "REV_AT_EPOCH": 95972, "BSTAR": 0.00083511225, "MEAN_MOTION_DOT": 1.351e-05, "MEAN_MOTION_DDOT": 0}, "tle": {"line1": "1 30823U 99025AVH 25342.32841812  .00001351  00000+0  83511-3 0  9996", "line2": "2 30823  98.7620 123.5041 0134042  96.8927 294.5753 14.02546876959721"}}, "geometry": {"type": "Point", "coordinates": [-42.8795754727621, 55.106016375972324]}}, {"type": "Feature", "properties": {"norad_id": 30826, "name": "FENGYUN 1C DEB", "group": "fengyun-1c-debris", "lat": -47.15338811427794, "lon": -172.4790178968059, "alt_km": 570.9719655257741, "timestamp": "2025-12-09T04:51:47.772071+00:00", "meta": {"OBJECT_NAME": "FENGYUN 1C DEB", "OBJECT_ID": "1999-025AVL", "EPOCH": "2025-12-08T19:25:32.621376", "MEAN_MOTION": 14.8217709, "ECCENTRICITY": 0.0145705, "INCLINATION": 98.8668, "RA_OF_ASC_NODE": 177.3962, "ARG_OF_PERICENTER": 9.2871, "MEAN_ANOMALY": 7.2935, "EPHEMERIS_TYPE": 0, "CLASSIFICATION_TYPE": "U", "NORAD_CAT_ID": 30826, "ELEMENT_SET_NO": 999, "REV_AT_EPOCH": 228, "BSTAR": 0.00075816, "MEAN_MOTION_DOT": 7.201e-05, "MEAN_MOTION_DDOT": 0}, "tle": {"line1": "1 30826U 99025AVL 25342.80940534  .00007201  00000+0  75816-3 0  9992", "line2": "2 30826  98.8668 177.3962 0145705   9.2871   7.2935 14.82177090  2287"}}, "geometry": {"type": "Point", "coordinates": [-172.4790178968059, -47.15338811427794]}}, {"type": "Feature", "properties": {"norad_id": 30827, "name": "FENGYUN 1C DEB", "group": "fengyun-1c-debris", "lat": -47.336197550119564, "lon": -21.640638325329125, "alt_km": 789.3706939661643, "timestamp": "2025-12-09T04:51:47.772081+00:00", "meta": {"OBJECT_NAME": "FENGYUN 1C DEB", "OBJECT_ID": "1999-025AVM", "EPOCH": "2025-12-06T16:57:25.317792", "MEAN_MOTION": 14.37646401, "ECCENTRICITY": 0.00434348, "INCLINATION": 99.0032, "RA_OF_ASC_NODE": 325.8407, "ARG_OF_PERICENTER": 196.8471, "MEAN_ANOMALY": 163.1274, "EPHEMERIS_TYPE": 0, "CLASSIFICATION_TYPE": "U", "NORAD_CAT_ID": 30827, "ELEMENT_SET_NO": 999, "REV_AT_EPOCH": 96462, "BSTAR": 0.0045362734, "MEAN_MOTION_DOT": 0.00013752, "MEAN_MOTION_DDOT": 0}, "tle": {"line1": "1 30827U 99025AVM 25340.70654303  .00013752  00000+0  45363-2 0  9997", "line2": "2 30827  99.0032 325.8407 0043434 196.8471 163.1274 14.37646401964625"}}, "geometry": {"type": "Point", "coordinates": [-21.640638325329125, -47.336197550119564]}}]}